STARLINK-36381          
1 67952U 26037W   26083.25002315  .00044640  00000+0  76397-3 0  9996
2 67952  42.9992 110.2452 0001938 259.3872 235.6703 15.50520701  5533
STARLINK-36824          
1 67953U 26037X   26083.25002315  .00022333  00000+0  38575-3 0  9998
2 67953  42.9993 110.8907 0001219 275.6828 317.9582 15.50555161  5537
STARLINK-36869          
1 67954U 26037Y   26083.25002315  .00025426  00000+0  43815-3 0  9998
2 67954  42.9993 110.8827 0001203 277.7989 318.6726 15.50557203  5541
STARLINK-36872          
1 67955U 26037Z   26083.25002315 -.01667797  00000+0 -28823-1 0  9995
2 67955  43.0000 109.9686 0000661 311.2236 295.2661 15.53252293  5543
STARLINK-36918          
1 67956U 26037AA  26083.25002315  .00024688  00000+0  42593-3 0  9991
2 67956  42.9994 110.1775 0001395 272.5403 248.8450 15.50538550  5547
STARLINK-36829          
1 67957U 26037AB  26083.25002315  .00018290  00000+0  31681-3 0  9990
2 67957  42.9995 110.4270 0000640 290.4110 130.2384 15.50583098  5545
STARLINK-36799          
1 67958U 26037AC  26083.25002315 -.01904256  00000+0 -30434-1 0  9993
2 67958  42.9997 109.8022 0001022 272.0551  41.3379 15.55806610  5544
STARLINK-36834          
1 67959U 26037AD  26083.25002315  .00018031  00000+0  31278-3 0  9997
2 67959  42.9994 110.3870 0001407 275.0225 161.1996 15.50549085  5549
STARLINK-36841          
1 67960U 26037AE  26083.25002315  .00024847  00000+0  42858-3 0  9997
2 67960  42.9995 110.3324 0000813 278.6747 179.7479 15.50541035  5542
STARLINK-36912          
1 67961U 26038A   26083.25002315 -.02270389  00000+0 -62873-1 0  9994
2 67961  97.2842  94.0926 0001492  78.2597  16.5079 15.40375435  5546
STARLINK-36881          
1 67962U 26038B   26083.25002315 -.02242966  00000+0 -62169-1 0  9993
2 67962  97.2853  94.0983 0001478  69.9179  37.3822 15.40306664  5544
STARLINK-36357          
1 67963U 26038C   26083.25002315 -.00482733  00000+0 -93651-2 0  9991
2 67963  97.2982  94.0651 0001094 118.1872 291.2336 15.49384793  5540
